{
  "61637": {
    "noradId": "61637",
    "tle": [
      "1 61637C 24191S   26055.81784722  .00018969  00000+0  68686-3 0   559",
      "2 61637  43.0020 227.3639 0001902 268.5819 173.9311 15.27567422    14"
    ]
  },
  "61638": {
    "noradId": "61638",
    "tle": [
      "1 61638C 24191T   26055.81715278  .00017819  00000+0  64528-3 0   554",
      "2 61638  43.0002 231.0951 0001646 268.8542  59.3036 15.27565915    11"
    ]
  },
  "61639": {
    "noradId": "61639",
    "tle": [
      "1 61639C 24191U   26055.82201389  .00019055  00000+0  68998-3 0   558",
      "2 61639  43.0025 227.2377 0001604 270.6308 237.2716 15.27568517    14"
    ]
  },
  "61640": {
    "noradId": "61640",
    "tle": [
      "1 61640C 24191V   26055.81715278  .00013944  00000+0  50508-3 0   555",
      "2 61640  42.9991 226.8369 0001494 264.3221  33.7137 15.27563259    17"
    ]
  },
  "61641": {
    "noradId": "61641",
    "tle": [
      "1 61641C 24191W   26055.81715278  .00013018  00000+0  47140-3 0   556",
      "2 61641  43.0001 227.0234 0001464 267.2463 312.9416 15.27573072    19"
    ]
  },
  "61642": {
    "noradId": "61642",
    "tle": [
      "1 61642C 24191X   26055.82131944  .00012810  00000+0  43959-3 0   553",
      "2 61642  42.9999 230.6218 0002770 305.3563 234.6716 15.29322188    17"
    ]
  },
  "61643": {
    "noradId": "61643",
    "tle": [
      "1 61643C 24191Y   26055.82340278  .00010929  00000+0  39586-3 0   556",
      "2 61643  43.0018 227.0908 0001352 265.3317 306.8494 15.27565659    10"
    ]
  },
  "61661": {
    "noradId": "61661",
    "tle": [
      "1 61661C 24193A   26055.82270833 -.00014507  00000+0 -48884-3 0   556",
      "2 61661  53.1571 150.9674 0001087  78.4281 292.8579 15.30212393    14"
    ]
  },
  "61662": {
    "noradId": "61662",
    "tle": [
      "1 61662C 24193B   26055.82201389 -.00011873  00000+0 -40010-3 0   553",
      "2 61662  53.1576 150.7506 0001424  81.5869  36.3952 15.30207644    13"
    ]
  },
  "61663": {
    "noradId": "61663",
    "tle": [
      "1 61663C 24193C   26055.82201389  .00004402  00000+0  14831-3 0   554",
      "2 61663  53.1583 150.4743 0001192  92.9939 164.5871 15.30195431    12"
    ]
  },
  "61664": {
    "noradId": "61664",
    "tle": [
      "1 61664C 24193D   26055.81993056 -.00004871  00000+0 -16413-3 0   553",
      "2 61664  53.1575 151.0615 0000995  85.2770 229.9868 15.30200532    18"
    ]
  },
  "61665": {
    "noradId": "61665",
    "tle": [
      "1 61665C 24193E   26055.82270833  .00000726  00000+0  24458-4 0   558",
      "2 61665  53.1577 151.1014 0001186  86.5814 214.9290 15.30191445    16"
    ]
  },
  "61666": {
    "noradId": "61666",
    "tle": [
      "1 61666C 24193F   26055.82270833  .00004391  00000+0  14797-3 0   555",
      "2 61666  53.1588 150.6204 0001258  87.9250  97.8794 15.30189605    15"
    ]
  },
  "61667": {
    "noradId": "61667",
    "tle": [
      "1 61667C 24193G   26055.81715278  .00048696  00000+0  16427-2 0   559",
      "2 61667  53.1569 151.0049 0001302  91.0704 243.7899 15.30113378    19"
    ]
  },
  "61668": {
    "noradId": "61668",
    "tle": [
      "1 61668C 24193H   26055.82270833  .00007229  00000+0  24362-3 0   559",
      "2 61668  53.1571 150.8857 0000946  69.0854 342.9360 15.30187404    17"
    ]
  },
  "61669": {
    "noradId": "61669",
    "tle": [
      "1 61669C 24193J   26055.82201389 -.00002184  00000+0 -73605-4 0   552",
      "2 61669  53.1578 148.5577 0001379  84.6210  65.3625 15.30200983    16"
    ]
  },
  "61670": {
    "noradId": "61670",
    "tle": [
      "1 61670C 24193K   26055.79631944 -.00039957  00000+0 -13477-2 0   551",
      "2 61670  53.1573 150.9383 0001304  87.1539 214.3975 15.30207864    14"
    ]
  },
  "61671": {
    "noradId": "61671",
    "tle": [
      "1 61671C 24193L   26055.79701389  .00004378  00000+0  14752-3 0   558",
      "2 61671  53.1584 150.7971 0001122  84.5452 290.5447 15.30192833    10"
    ]
  },
  "61672": {
    "noradId": "61672",
    "tle": [
      "1 61672C 24193M   26055.79840278  .00000978  00000+0  32949-4 0   551",
      "2 61672  53.1585 150.7674 0001212  96.0400 298.3417 15.30196093    18"
    ]
  },
  "61673": {
    "noradId": "61673",
    "tle": [
      "1 61673C 24193N   26055.81854167  .00042957  00000+0  14481-2 0   559",
      "2 61673  53.1587 150.6279 0001223  57.2247 111.3754 15.30141721    17"
    ]
  },
  "61674": {
    "noradId": "61674",
    "tle": [
      "1 61674C 24193P   26055.81645833  .00007075  00000+0  23842-3 0   552",
      "2 61674  53.1586 150.6139 0001192  84.6697  84.1271 15.30188793    11"
    ]
  },
  "61675": {
    "noradId": "61675",
    "tle": [
      "1 61675C 24193Q   26055.82270833 -.00031217  00000+0 -10520-2 0   553",
      "2 61675  53.1586 150.5504 0001264  77.3410 143.3413 15.30228095    15"
    ]
  },
  "61676": {
    "noradId": "61676",
    "tle": [
      "1 61676C 24193R   26055.82270833  .00010749  00000+0  36225-3 0   550",
      "2 61676  53.1582 150.4348 0001230  81.8309 197.0410 15.30184260    15"
    ]
  },
  "61677": {
    "noradId": "61677",
    "tle": [
      "1 61677C 24193S   26055.82270833 -.00009340  00000+0 -31474-3 0   559",
      "2 61677  53.1583 150.5040 0001246  84.0167 159.9338 15.30205840    15"
    ]
  },
  "61678": {
    "noradId": "61678",
    "tle": [
      "1 61678C 24193T   26055.81784722 -.00002828  00000+0 -95285-4 0   551",
      "2 61678  53.1583 150.4802 0001307  82.1962 158.2345 15.30201435    17"
    ]
  },
  "61679": {
    "noradId": "61679",
    "tle": [
      "1 61679C 24193U   26055.82201389  .00001302  00000+0  43866-4 0   558",
      "2 61679  53.1579 151.1143 0001155  87.5155 204.3332 15.30198978    19"
    ]
  },
  "61680": {
    "noradId": "61680",
    "tle": [
      "1 61680C 24193V   26055.81854167 -.00011475  00000+0 -38676-3 0   553",
      "2 61680  53.1575 151.0485 0001151  79.7897 233.6514 15.30202994    18"
    ]
  },
  "61681": {
    "noradId": "61681",
    "tle": [
      "1 61681C 24193W   26055.81993056 -.00000719  00000+0 -24219-4 0   553",
      "2 61681  53.1575 151.0884 0001205  82.0504 215.7661 15.30202247    19"
    ]
  },
  "61682": {
    "noradId": "61682",
    "tle": [
      "1 61682C 24193X   26055.81784722 -.00010845  00000+0 -36547-3 0   559",
      "2 61682  53.1583 150.5416 0001044  92.0913 113.4434 15.30205597    13"
    ]
  },
  "61687": {
    "noradId": "61687",
    "tle": [
      "1 61687C 24195A   26055.84354167 -.00005776  00000+0 -47565-4 0   555",
      "2 61687  53.1567  89.9425 0001375  70.8717 201.3261 15.69720846    14"
    ]
  },
  "61688": {
    "noradId": "61688",
    "tle": [
      "1 61688C 24195B   26055.84423611 -.00009467  00000+0 -77986-4 0   558",
      "2 61688  53.1567  89.8817 0001212  82.5555 221.3135 15.69717497    19"
    ]
  },
  "61689": {
    "noradId": "61689",
    "tle": [
      "1 61689C 24195C   26055.84562500 -.00004038  00000+0 -33258-4 0   553",
      "2 61689  53.1568  89.8176 0001281  83.7843 255.6706 15.69718852    18"
    ]
  },
  "61690": {
    "noradId": "61690",
    "tle": [
      "1 61690C 24195D   26055.84909722 -.00021766  00000+0 -17931-3 0   552",
      "2 61690  53.1572  89.7441 0001234  79.3014 307.5212 15.69728786    14"
    ]
  },
  "61691": {
    "noradId": "61691",
    "tle": [
      "1 61691C 24195E   26055.84909722 -.00009811  00000+0 -80799-4 0   553",
      "2 61691  53.1574  89.6305 0001264  84.6392 357.6474 15.69724284    11"
    ]
  },
  "61692": {
    "noradId": "61692",
    "tle": [
      "1 61692C 24195F   26055.84284722 -.00011959  00000+0 -98491-4 0   554",
      "2 61692  53.1575  89.7180 0001270  86.2873 292.9292 15.69726557    18"
    ]
  },
  "61693": {
    "noradId": "61693",
    "tle": [
      "1 61693C 24195G   26055.84909722 -.00012413  00000+0 -10225-3 0   553",
      "2 61693  53.1573  89.5731 0001290  83.9805  26.0627 15.69721209    15"
    ]
  },
  "61694": {
    "noradId": "61694",
    "tle": [
      "1 61694C 24195H   26055.84701389 -.00010056  00000+0 -82835-4 0   551",
      "2 61694  53.1571  89.5263 0001249  79.8977  46.0983 15.69718821    15"
    ]
  },
  "61695": {
    "noradId": "61695",
    "tle": [
      "1 61695C 24195J   26055.84840278 -.00016127  00000+0 -13283-3 0   558",
      "2 61695  53.1570  89.4622 0001257  71.1185  90.4592 15.69727979    11"
    ]
  },
  "61696": {
    "noradId": "61696",
    "tle": [
      "1 61696C 24195K   26055.84493056 -.00012940  00000+0 -10655-3 0   556",
      "2 61696  53.1569  89.4224 0001171  86.4919  83.1807 15.69730860    18"
    ]
  },
  "61697": {
    "noradId": "61697",
    "tle": [
      "1 61697C 24195L   26055.84770833 -.00019044  00000+0 -15687-3 0   550",
      "2 61697  53.1571  89.3521 0001254  85.5652 127.5630 15.69729292    11"
    ]
  },
  "61699": {
    "noradId": "61699",
    "tle": [
      "1 61699C 24195N   26055.84354167 -.00022887  00000+0 -18850-3 0   554",
      "2 61699  53.1569  89.2594 0001263  78.3405 166.6955 15.69735723    15"
    ]
  },
  "61700": {
    "noradId": "61700",
    "tle": [
      "1 61700C 24195P   26055.82270833 -.00000990  00000+0 -33366-4 0   553",
      "2 61700  53.1582 215.1962 0001288  64.0876 181.3901 15.30191839    10"
    ]
  },
  "61701": {
    "noradId": "61701",
    "tle": [
      "1 61701C 24195Q   26055.79631944  .00001601  00000+0  53954-4 0   557",
      "2 61701  53.1588 215.2155 0001365  84.4228  67.9638 15.30188254    18"
    ]
  },
  "61702": {
    "noradId": "61702",
    "tle": [
      "1 61702C 24195R   26055.82270833  .00003321  00000+0  11193-3 0   557",
      "2 61702  53.1581 214.9429 0001221  84.8451 288.6065 15.30188373    13"
    ]
  },
  "61703": {
    "noradId": "61703",
    "tle": [
      "1 61703C 24195S   26055.82479167  .00213520  00000+0  43315-2 0   553",
      "2 61703  53.1494 212.4740 0008321 293.2030 247.3583 15.45526767    19"
    ]
  }
}